STARLINK-31937          
1 59871U 24098P   26068.54000939 -.00001260  00000+0 -36279-4 0  9996
2 59871  43.0016 271.8857 0000963 267.4431  92.6310 15.27569362101907
FLOCK 4G-15             
1 62678U 25009BX  26068.71779869  .00012647  00000+0  47575-3 0  9991
2 62678  97.4054 151.1927 0003699 316.8208  43.2740 15.27266411121358
